ORBCOMM FM33            
1 25983U 99065D   25253.21431932  .00000788  00000+0  29193-3 0  9997
2 25983  45.0294 314.6647 0007665 146.6481 213.4853 14.40162501348328
ORBCOMM FM36            
1 25984U 99065E   25253.22032965  .00001174  00000+0  42867-3 0  9995
2 25984  45.0399  47.8674 0001974  22.3170 337.7765 14.38316905346665
ORBCOMM FM35            
1 25985U 99065F   25253.12242938  .00001016  00000+0  38521-3 0  9995
2 25985  45.0399  54.0435 0004260 113.0203 247.1095 14.37266380347006
ORBCOMM FM34            
1 25986U 99065G   25252.94855535  .00000768  00000+0  30260-3 0  9993
2 25986  45.0396  55.3223 0003637  63.1969 296.9251 14.37266305347096
ORBCOMM FM38            
1 33060U 08031A   25253.19507127  .00001514  00000+0  21763-3 0  9995
2 33060  48.4387 270.0458 0004580  37.9370 322.1867 14.81631836927356
ORBCOMM FM41            
1 33061U 08031B   25252.50906977  .00001452  00000+0  21190-3 0  9991
2 33061  48.4425 281.3895 0004015  16.1954 136.7792 14.81202808926730
ORBCOMM FM29            
1 33062U 08031C   25253.14060197  .00001171  00000+0  17573-3 0  9996
2 33062  48.4379 286.0839 0005632  21.5086  18.5115 14.81319880926747
ORBCOMM FM39            
1 33063U 08031D   25253.18045622  .00001232  00000+0  18978-3 0  9995
2 33063  48.4401 311.1087 0006825 354.2087   5.8748 14.79837965926388
